[{"OBJECT_NAME":"STARLINK-30331","OBJECT_ID":"2023-131J","EPOCH":"2026-03-09T10:06:52.396128","MEAN_MOTION":15.27577219,"ECCENTRICITY":0.00011851,"INCLINATION":43.0033,"RA_OF_ASC_NODE":100.9149,"ARG_OF_PERICENTER":268.4448,"MEAN_ANOMALY":91.6268,"EPHEMERIS_TYPE":0,"CLASSIFICATION_TYPE":"U","NORAD_CAT_ID":57740,"ELEMENT_SET_NO":999,"REV_AT_EPOCH":14073,"BSTAR":-5.5499444e-5,"MEAN_MOTION_DOT":-1.789e-5,"MEAN_MOTION_DDOT":0},{"OBJECT_NAME":"FLOCK 4G-29","OBJECT_ID":"2025-009AK","EPOCH":"2026-03-09T19:33:04.927968","MEAN_MOTION":15.27382318,"ECCENTRICITY":0.00013664,"INCLINATION":97.4058,"RA_OF_ASC_NODE":151.3683,"ARG_OF_PERICENTER":288.0502,"MEAN_ANOMALY":72.0588,"EPHEMERIS_TYPE":0,"CLASSIFICATION_TYPE":"U","NORAD_CAT_ID":62642,"ELEMENT_SET_NO":999,"REV_AT_EPOCH":6372,"BSTAR":0.0004183135,"MEAN_MOTION_DOT":0.00011147,"MEAN_MOTION_DDOT":0}]
